NORAD_CAT_ID,OBJECT_NAME,OBJECT_TYPE,EPOCH,MEAN_MOTION,ECCENTRICITY,INCLINATION,RA_OF_ASC_NODE,ARG_OF_PERICENTER,MEAN_ANOMALY,BSTAR,MEAN_MOTION_DOT,MEAN_MOTION_DDOT,TLE_LINE0,TLE_LINE1,TLE_LINE2,SEMIMAJOR_AXIS,PERIOD,APOGEE,PERIGEE,DECAYED
52540.0,STARLINK-3940,PAYLOAD,2022-10-11 04:08:02,15.08821295,0.0002328,53.2172,320.4735,31.8805,328.2328,-2.7935e-05,-7.33e-06,0.0,0 STARLINK-3940,1 52540U 22051H   22284.17225641 -.00000733  00000-0 -27935-4 0  9997,2 52540  53.2172 320.4735 0002328  31.8805 328.2328 15.08821295 23488,6917.938,95.439,541.413,538.192,0.0
52540.0,STARLINK-3940,PAYLOAD,2022-10-11 12:04:58,15.08822749,0.0001873,53.2174,318.983,39.51,320.6029,-0.00012518,-2.279e-05,0.0,0 STARLINK-3940,1 52540U 22051H   22284.50346011 -.00002279  00000-0 -12518-3 0  9996,2 52540  53.2174 318.9830 0001873  39.5100 320.6029 15.08822749 23462,6917.933000000001,95.439,541.094,538.502,0.0
52540.0,STARLINK-3940,PAYLOAD,2022-10-12 02:23:26,15.08837343,0.0002275999999999,53.2177,316.3104,32.0052,328.1078,-5.724800000000001e-05,-1.199e-05,0.0,0 STARLINK-3940,1 52540U 22051H   22285.09961116 -.00001199  00000-0 -57248-4 0  9990,2 52540  53.2177 316.3104 0002276  32.0052 328.1078 15.08837343 23624,6917.889,95.438,541.328,538.179,0.0
52540.0,STARLINK-3940,PAYLOAD,2022-10-12 08:44:59,15.0883209,0.0001979,53.217,315.1212,39.0696,321.0439,-8.4417e-05,-1.631e-05,0.0,0 STARLINK-3940,1 52540U 22051H   22285.36457569 -.00001631  00000-0 -84417-4 0  9991,2 52540  53.2170 315.1212 0001979  39.0696 321.0439 15.08832090 23597,6917.905,95.438,541.139,538.401,0.0
52540.0,STARLINK-3940,PAYLOAD,2022-10-13 03:49:37,15.08824245,0.0002356999999999,53.2168,311.5527,35.3475,324.7673,0.00012004,1.622e-05,0.0,0 STARLINK-3940,1 52540U 22051H   22286.15945727  .00001622  00000-0  12004-3 0  9997,2 52540  53.2168 311.5527 0002357  35.3475 324.7673 15.08824245 23782,6917.929,95.439,541.424,538.163,0.0
52540.0,STARLINK-3940,PAYLOAD,2022-10-13 11:46:32,15.08828033,0.0002362,53.2169,310.0652,36.439,323.6763,0.00013794,1.907e-05,0.0,0 STARLINK-3940,1 52540U 22051H   22286.49065716  .00001907  00000-0  13794-3 0  9998,2 52540  53.2169 310.0652 0002362  36.4390 323.6763 15.08828033 23765,6917.917,95.438,541.4159999999998,538.148,0.0
52540.0,STARLINK-3940,PAYLOAD,2022-10-13 18:08:04,15.08834549,0.0002179,53.2169,308.8764,37.4641,322.6502,0.00019166,2.763e-05,0.0,0 STARLINK-3940,1 52540U 22051H   22286.75561215  .00002763  00000-0  19166-3 0  9992,2 52540  53.2169 308.8764 0002179  37.4641 322.6502 15.08834549 23871,6917.897,95.438,541.269,538.255,0.0
52540.0,STARLINK-3940,PAYLOAD,2022-10-14 08:26:33,15.08814696,0.0002218,53.2171,306.1995,41.3394,318.7766,0.00034551,5.211e-05,0.0,0 STARLINK-3940,1 52540U 22051H   22287.35178070  .00005211  00000-0  34551-3 0  9998,2 52540  53.2171 306.1995 0002218  41.3394 318.7766 15.08814696 23963,6917.958000000001,95.439,541.357,538.288,0.0
52540.0,STARLINK-3940,PAYLOAD,2022-10-14 22:45:01,15.08836012,0.000222,53.2178,303.5235,37.2497,322.8648,5.6139e-05,6.05e-06,0.0,0 STARLINK-3940,1 52540U 22051H   22287.94793696  .00000605  00000-0  56139-4 0  9999,2 52540  53.2178 303.5235 0002220  37.2497 322.8648 15.08836012 24051,6917.893,95.438,541.293,538.222,0.0
52540.0,STARLINK-3940,PAYLOAD,2022-10-15 09:52:43,15.08841307,0.0002116,53.2167,301.4424,41.1004,319.0147,7.850899999999999e-05,9.62e-06,0.0,0 STARLINK-3940,1 52540U 22051H   22288.41161243  .00000962  00000-0  78509-4 0  9990,2 52540  53.2167 301.4424 0002116  41.1004 319.0147 15.08841307 24121,6917.876,95.437,541.205,538.278,0.0
52540.0,STARLINK-3940,PAYLOAD,2022-10-15 22:35:47,15.08848288,0.0002026999999999,53.2161,299.0638,41.3613,318.7533,4.6855e-05,4.58e-06,0.0,0 STARLINK-3940,1 52540U 22051H   22288.94152672  .00000458  00000-0  46855-4 0  9993,2 52540  53.2161 299.0638 0002027  41.3613 318.7533 15.08848288 24202,6917.855,95.437,541.122,538.318,0.0
52540.0,STARLINK-3940,PAYLOAD,2022-10-17 03:12:46,15.08831258,0.0001884,53.2169,293.7091,41.9867,318.1269,-0.00010678,-1.987e-05,0.0,0 STARLINK-3940,1 52540U 22051H   22290.13386867 -.00001987  00000-0 -10678-3 0  9995,2 52540  53.2169 293.7091 0001884  41.9867 318.1269 15.08831258 24389,6917.906999999997,95.438,541.075,538.469,0.0
52540.0,STARLINK-3940,PAYLOAD,2022-10-17 09:34:18,15.08834573,0.0001831,53.2167,292.5175,44.3811,315.7327,-7.2399e-05,-1.44e-05,0.0,0 STARLINK-3940,1 52540U 22051H   22290.39882627 -.00001440  00000-0 -72399-4 0  9991,2 52540  53.2167 292.5175 0001831  44.3811 315.7327 15.08834573 24353,6917.897,95.438,541.029,538.495,0.0
52540.0,STARLINK-3940,PAYLOAD,2022-10-17 17:31:13,15.08838994,0.000199,53.2163,291.0337,40.6655,319.4486,1.938e-05,2e-07,0.0,0 STARLINK-3940,1 52540U 22051H   22290.73002224  .00000020  00000-0  19380-4 0  9998,2 52540  53.2163 291.0337 0001990  40.6655 319.4486 15.08838994 24475,6917.8830000000025,95.438,541.125,538.372,0.0
52540.0,STARLINK-3940,PAYLOAD,2022-10-18 09:25:05,15.08827223,0.0002081,53.2165,288.0601,38.8113,321.3029,0.00011947,1.613e-05,0.0,0 STARLINK-3940,1 52540U 22051H   22291.39242700  .00001613  00000-0  11947-3 0  9995,2 52540  53.2165 288.0601 0002081  38.8113 321.3029 15.08827223 24509,6917.919,95.438,541.224,538.345,0.0
52540.0,STARLINK-3940,PAYLOAD,2022-10-18 17:22:01,15.08833711,0.0002054,53.2169,286.5728,40.8725,319.2421,0.00011197,1.494e-05,0.0,0 STARLINK-3940,1 52540U 22051H   22291.72362543  .00001494  00000-0  11197-3 0  9994,2 52540  53.2169 286.5728 0002054  40.8725 319.2421 15.08833711 24554,6917.9,95.438,541.186,538.344,0.0
52540.0,STARLINK-3940,PAYLOAD,2022-10-19 09:15:52,15.08833157,0.0002137,53.216,283.6001,38.5634,321.551,8.7619e-05,1.106e-05,0.0,0 STARLINK-3940,1 52540U 22051H   22292.38602926  .00001106  00000-0  87619-4 0  9992,2 52540  53.2160 283.6001 0002137  38.5634 321.5510 15.08833157 24652,6917.901,95.438,541.245,538.288,0.0
52540.0,STARLINK-3940,PAYLOAD,2022-10-20 05:55:52,15.08853232,0.0002210999999999,53.2165,279.7353,35.1791,324.9347,-5.232800000000001e-05,-1.121e-05,0.0,0 STARLINK-3940,1 52540U 22051H   22293.24713867 -.00001121  00000-0 -52328-4 0  9993,2 52540  53.2165 279.7353 0002211  35.1791 324.9347 15.08853232 24856,6917.84,95.437,541.234,538.175,0.0
52540.0,STARLINK-3940,PAYLOAD,2022-10-20 09:06:39,15.08848164,0.0002213,53.2164,279.1401,38.6247,321.4903,-2.469e-05,-6.81e-06,0.0,0 STARLINK-3940,1 52540U 22051H   22293.37962013 -.00000681  00000-0 -24690-4 0  9997,2 52540  53.2164 279.1401 0002213  38.6247 321.4903 15.08848164 24802,6917.855,95.437,541.251,538.19,0.0
52540.0,STARLINK-3940,PAYLOAD,2022-10-20 18:38:57,15.08843435,0.0001754999999999,53.2166,277.3559,31.2965,328.8131,6.0592e-05,6.76e-06,0.0,0 STARLINK-3940,1 52540U 22051H   22293.77705778  .00000676  00000-0  60592-4 0  9997,2 52540  53.2166 277.3559 0001755  31.2965 328.8131 15.08843435 24860,6917.87,95.437,540.9490000000002,538.521,0.0
52540.0,STARLINK-3940,PAYLOAD,2022-10-21 05:46:40,15.0883493,0.0002256999999999,53.2171,275.2746,39.4027,320.7129,1.081e-05,-1.16e-06,0.0,0 STARLINK-3940,1 52540U 22051H   22294.24074646 -.00000116  00000-0  10810-4 0  9991,2 52540  53.2171 275.2746 0002257  39.4027 320.7129 15.08834930 25003,6917.896,95.438,541.322,538.2,0.0
52540.0,STARLINK-3940,PAYLOAD,2022-10-21 07:22:03,15.08833426,0.0002233,53.217,274.9767,40.3465,319.7693,4.0452e-05,3.55e-06,0.0,0 STARLINK-3940,1 52540U 22051H   22294.30698657  .00000355  00000-0  40452-4 0  9991,2 52540  53.2170 274.9767 0002233  40.3465 319.7693 15.08833426 24947,6917.9,95.438,541.31,538.221,0.0
52540.0,STARLINK-3940,PAYLOAD,2022-10-21 15:18:58,15.08841002,0.0002136,53.217,273.49,41.3745,318.7409,6.8452e-05,8.01e-06,0.0,0 STARLINK-3940,1 52540U 22051H   22294.63818070  .00000801  00000-0  68452-4 0  9996,2 52540  53.2170 273.4900 0002136  41.3745 318.7409 15.08841002 25061,6917.877,95.437,541.22,538.265,0.0
52540.0,STARLINK-3940,PAYLOAD,2022-10-22 08:48:13,15.08841342,0.0002188,53.2169,270.2183,41.9506,318.1653,-3.8849e-05,-9.07e-06,0.0,0 STARLINK-3940,1 52540U 22051H   22295.36682310 -.00000907  00000-0 -38849-4 0  9999,2 52540  53.2169 270.2183 0002188  41.9506 318.1653 15.08841342 25102,6917.876,95.437,541.255,538.2280000000002,0.0
52540.0,STARLINK-3940,PAYLOAD,2022-10-22 15:09:45,15.0884005,0.0002102,53.2171,269.029,44.6484,315.4677,7.8469e-05,9.61e-06,0.0,0 STARLINK-3940,1 52540U 22051H   22295.63178000  .00000961  00000-0  78469-4 0  9995,2 52540  53.2171 269.0290 0002102  44.6484 315.4677 15.08840050 25146,6917.88,95.438,541.1990000000002,538.2909999999998,0.0
52540.0,STARLINK-3940,PAYLOAD,2022-10-23 03:52:50,15.088386600000002,0.0002134999999999,53.2171,266.6499,43.6361,316.48,8.3866e-05,1.047e-05,0.0,0 STARLINK-3940,1 52540U 22051H   22296.16170041  .00001047  00000-0  83866-4 0  9994,2 52540  53.2171 266.6499 0002135  43.6361 316.4800 15.08838660 25298,6917.884,95.438,541.226,538.273,0.0
52540.0,STARLINK-3940,PAYLOAD,2022-10-23 07:03:37,15.08841559,0.0002130999999999,53.2167,266.0552,41.633,318.4824,7.2741e-05,8.7e-06,0.0,0 STARLINK-3940,1 52540U 22051H   22296.29417889  .00000870  00000-0  72741-4 0  9995,2 52540  53.2167 266.0552 0002131  41.6330 318.4824 15.08841559 25241,6917.876,95.437,541.215,538.266,0.0
52540.0,STARLINK-3940,PAYLOAD,2022-10-24 02:08:13,15.08850548,0.0002145,53.2169,262.4863,42.1602,317.9555,0.00011795,1.59e-05,0.0,0 STARLINK-3940,1 52540U 22051H   22297.08904793  .00001590  00000-0  11795-3 0  9999,2 52540  53.2169 262.4863 0002145  42.1602 317.9555 15.08850548 25435,6917.848000000001,95.437,541.197,538.229,0.0
52540.0,STARLINK-3940,PAYLOAD,2022-10-24 08:29:47,15.08838016,0.0002304,53.2165,261.2978,41.1782,318.9384,3.9842e-05,3.46e-06,0.0,0 STARLINK-3940,1 52540U 22051H   22297.35401757  .00000346  00000-0  39842-4 0  9993,2 52540  53.2165 261.2978 0002304  41.1782 318.9384 15.08838016 25404,6917.886,95.438,541.345,538.158,0.0
